{
  "type": "FeatureCollection",
  "features": [
    {
      "type": "Feature",
      "properties": {
        "norad_id": 34918,
        "name": "COSMOS 2251 DEB",
        "group": "cosmos-2251-debris",
        "lat": 46.460761320459895,
        "lon": -26.123390741512797,
        "alt_km": 698.6610396109945,
        "timestamp": "2025-12-11T07:02:24.126413+00:00",
        "meta_object_name": "COSMOS 2251 DEB",
        "meta_object_id": "1993-036ADP",
        "meta_epoch": "2025-12-10T06:27:09.237024",
        "meta_mean_motion": 14.6111897,
        "meta_eccentricity": 0.0033898,
        "meta_inclination": 74.0712,
        "meta_ra_of_asc_node": 318.3402,
        "meta_arg_of_pericenter": 286.4186,
        "meta_mean_anomaly": 135.6409,
        "meta_ephemeris_type": 0,
        "meta_classification_type": "U",
        "meta_norad_cat_id": 34918,
        "meta_element_set_no": 999,
        "meta_rev_at_epoch": 65300,
        "meta_bstar": 0.0032517,
        "meta_mean_motion_dot": 0.00016131,
        "meta_mean_motion_ddot": 0,
        "tle_line1": "1 34918U 93036ADP 25344.26885691  .00016131  00000+0  32517-2 0  9990",
        "tle_line2": "2 34918  74.0712 318.3402 0033898 286.4186 135.6409 14.61118970653005"
      },
      "geometry": {
        "type": "Point",
        "coordinates": [
          -26.123390741512797,
          46.460761320459895
        ]
      }
    },
    {
      "type": "Feature",
      "properties": {
        "norad_id": 34924,
        "name": "COSMOS 2251 DEB",
        "group": "cosmos-2251-debris",
        "lat": 47.617020487688556,
        "lon": 110.4839161160018,
        "alt_km": 711.6251307183966,
        "timestamp": "2025-12-11T07:02:24.126424+00:00",
        "meta_object_name": "COSMOS 2251 DEB",
        "meta_object_id": "1993-036ADV",
        "meta_epoch": "2025-12-09T17:40:35.016960",
        "meta_mean_motion": 14.59983788,
        "meta_eccentricity": 0.00546463,
        "meta_inclination": 74.0408,
        "meta_ra_of_asc_node": 95.1777,
        "meta_arg_of_pericenter": 180.5365,
        "meta_mean_anomaly": 330.9802,
        "meta_ephemeris_type": 0,
        "meta_classification_type": "U",
        "meta_norad_cat_id": 34924,
        "meta_element_set_no": 999,
        "meta_rev_at_epoch": 87679,
        "meta_bstar": 0.0017478833,
        "meta_mean_motion_dot": 8.543e-05,
        "meta_mean_motion_ddot": 0,
        "tle_line1": "1 34924U 93036ADV 25343.73651640  .00008543  00000+0  17479-2 0  9991",
        "tle_line2": "2 34924  74.0408  95.1777 0054646 180.5365 330.9802 14.59983788876790"
      },
      "geometry": {
        "type": "Point",
        "coordinates": [
          110.4839161160018,
          47.617020487688556
        ]
      }
    },
    {
      "type": "Feature",
      "properties": {
        "norad_id": 34944,
        "name": "COSMOS 2251 DEB",
        "group": "cosmos-2251-debris",
        "lat": 31.1393189761031,
        "lon": -115.20057933353232,
        "alt_km": 738.8228010116818,
        "timestamp": "2025-12-11T07:02:24.126434+00:00",
        "meta_object_name": "COSMOS 2251 DEB",
        "meta_object_id": "1993-036ADX",
        "meta_epoch": "2025-12-07T09:30:46.029312",
        "meta_mean_motion": 14.14167925,
        "meta_eccentricity": 0.02195348,
        "meta_inclination": 73.7495,
        "meta_ra_of_asc_node": 241.6775,
        "meta_arg_of_pericenter": 90.2413,
        "meta_mean_anomaly": 272.3884,
        "meta_ephemeris_type": 0,
        "meta_classification_type": "U",
        "meta_norad_cat_id": 34944,
        "meta_element_set_no": 999,
        "meta_rev_at_epoch": 64007,
        "meta_bstar": 0.00099492053,
        "meta_mean_motion_dot": 2.364e-05,
        "meta_mean_motion_ddot": 0,
        "tle_line1": "1 34944U 93036ADX 25341.39636608  .00002364  00000+0  99492-3 0  9991",
        "tle_line2": "2 34944  73.7495 241.6775 0219534  90.2413 272.3884 14.14167925640077"
      },
      "geometry": {
        "type": "Point",
        "coordinates": [
          -115.20057933353232,
          31.1393189761031
        ]
      }
    },
    {
      "type": "Feature",
      "properties": {
        "norad_id": 34946,
        "name": "COSMOS 2251 DEB",
        "group": "cosmos-2251-debris",
        "lat": -61.13281643321216,
        "lon": -163.80324986826764,
        "alt_km": 712.1872552084606,
        "timestamp": "2025-12-11T07:02:24.126444+00:00",
        "meta_object_name": "COSMOS 2251 DEB",
        "meta_object_id": "1993-036ADZ",
        "meta_epoch": "2025-12-09T17:47:38.816736",
        "meta_mean_motion": 14.6197132,
        "meta_eccentricity": 0.00487389,
        "meta_inclination": 74.0236,
        "meta_ra_of_asc_node": 347.8579,
        "meta_arg_of_pericenter": 126.0022,
        "meta_mean_anomaly": 234.5678,
        "meta_ephemeris_type": 0,
        "meta_classification_type": "U",
        "meta_norad_cat_id": 34946,
        "meta_element_set_no": 999,
        "meta_rev_at_epoch": 88165,
        "meta_bstar": 0.00088969949,
        "meta_mean_motion_dot": 4.507e-05,
        "meta_mean_motion_ddot": 0,
        "tle_line1": "1 34946U 93036ADZ 25343.74142149  .00004507  00000+0  88970-3 0  9996",
        "tle_line2": "2 34946  74.0236 347.8579 0048738 126.0022 234.5678 14.61971320881653"
      },
      "geometry": {
        "type": "Point",
        "coordinates": [
          -163.80324986826764,
          -61.13281643321216
        ]
      }
    },
    {
      "type": "Feature",
      "properties": {
        "norad_id": 34949,
        "name": "COSMOS 2251 DEB",
        "group": "cosmos-2251-debris",
        "lat": 71.41490275482,
        "lon": 170.94944773655936,
        "alt_km": 697.588942852085,
        "timestamp": "2025-12-11T07:02:24.126454+00:00",
        "meta_object_name": "COSMOS 2251 DEB",
        "meta_object_id": "1993-036AEC",
        "meta_epoch": "2025-12-09T15:34:41.030400",
        "meta_mean_motion": 14.73963573,
        "meta_eccentricity": 0.008042,
        "meta_inclination": 74.0182,
        "meta_ra_of_asc_node": 115.6941,
        "meta_arg_of_pericenter": 261.6413,
        "meta_mean_anomaly": 97.5637,
        "meta_ephemeris_type": 0,
        "meta_classification_type": "U",
        "meta_norad_cat_id": 34949,
        "meta_element_set_no": 999,
        "meta_rev_at_epoch": 88316,
        "meta_bstar": 0.00087029,
        "meta_mean_motion_dot": 5.989e-05,
        "meta_mean_motion_ddot": 0,
        "tle_line1": "1 34949U 93036AEC 25343.64908600  .00005989  00000+0  87029-3 0  9999",
        "tle_line2": "2 34949  74.0182 115.6941 0080420 261.6413  97.5637 14.73963573883168"
      },
      "geometry": {
        "type": "Point",
        "coordinates": [
          170.94944773655936,
          71.41490275482
        ]
      }
    },
    {
      "type": "Feature",
      "properties": {
        "norad_id": 34953,
        "name": "COSMOS 2251 DEB",
        "group": "cosmos-2251-debris",
        "lat": 72.46117119152714,
        "lon": 94.74602474432888,
        "alt_km": 636.4373225351219,
        "timestamp": "2025-12-11T07:02:24.126465+00:00",
        "meta_object_name": "COSMOS 2251 DEB",
        "meta_object_id": "1993-036AEG",
        "meta_epoch": "2025-12-10T21:40:35.322240",
        "meta_mean_motion": 14.6893174,
        "meta_eccentricity": 0.00579321,
        "meta_inclination": 74.0932,
        "meta_ra_of_asc_node": 31.0323,
        "meta_arg_of_pericenter": 23.6187,
        "meta_mean_anomaly": 156.05,
        "meta_ephemeris_type": 0,
        "meta_classification_type": "U",
        "meta_norad_cat_id": 34953,
        "meta_element_set_no": 999,
        "meta_rev_at_epoch": 88101,
        "meta_bstar": 0.0011869048,
        "meta_mean_motion_dot": 7.103e-05,
        "meta_mean_motion_ddot": 0,
        "tle_line1": "1 34953U 93036AEG 25344.90318660  .00007103  00000+0  11869-2 0  9993",
        "tle_line2": "2 34953  74.0932  31.0323 0057932  23.6187 156.0500 14.68931740881014"
      },
      "geometry": {
        "type": "Point",
        "coordinates": [
          94.74602474432888,
          72.46117119152714
        ]
      }
    },
    {
      "type": "Feature",
      "properties": {
        "norad_id": 34955,
        "name": "COSMOS 2251 DEB",
        "group": "cosmos-2251-debris",
        "lat": 49.27825822733544,
        "lon": -91.12948608787853,
        "alt_km": 562.6994758847031,
        "timestamp": "2025-12-11T07:02:24.126475+00:00",
        "meta_object_name": "COSMOS 2251 DEB",
        "meta_object_id": "1993-036AEJ",
        "meta_epoch": "2025-12-10T10:00:29.355552",
        "meta_mean_motion": 15.00456556,
        "meta_eccentricity": 0.0077988,
        "meta_inclination": 74.0368,
        "meta_ra_of_asc_node": 251.2293,
        "meta_arg_of_pericenter": 321.4466,
        "meta_mean_anomaly": 38.1166,
        "meta_ephemeris_type": 0,
        "meta_classification_type": "U",
        "meta_norad_cat_id": 34955,
        "meta_element_set_no": 999,
        "meta_rev_at_epoch": 89999,
        "meta_bstar": 0.0012331385,
        "meta_mean_motion_dot": 0.00016553,
        "meta_mean_motion_ddot": 0,
        "tle_line1": "1 34955U 93036AEJ 25344.41700643  .00016553  00000+0  12331-2 0  9991",
        "tle_line2": "2 34955  74.0368 251.2293 0077988 321.4466  38.1166 15.00456556899991"
      },
      "geometry": {
        "type": "Point",
        "coordinates": [
          -91.12948608787853,
          49.27825822733544
        ]
      }
    }
  ]
}